     2.100          NAVIGATION                              RINEX VERSION / TYPE
fic2rin                                 08/11/2014 00:34:26 PGM / RUN BY / DATE
                                                            END OF HEADER
23 14  8 10 18  0  0.0 -.434666872025D-04 -.295585778076D-11  .000000000000D+00
     .450000000000D+02 -.581562500000D+02  .501628037678D-08  .156026795554D+01
    -.288709998131D-05  .967501092236D-02  .687316060066D-05  .515374330521D+04
     .648000000000D+05 -.119209289551D-06 -.974156910528D+00  .260770320892D-07
     .950794168782D+00  .245625000000D+03 -.274379073515D+01 -.835927676886D-08
    -.732887670570D-09  .100000000000D+01  .180500000000D+04  .000000000000D+00
     .240000000000D+01  .000000000000D+00 -.200234353542D-07  .450000000000D+02
     .576060000000D+05  .400000000000D+01
24 14  8 10 18  0  0.0 -.333050265908D-04 -.682121026330D-12  .000000000000D+00
     .740000000000D+02  .754687500000D+02  .419017453759D-08  .842102670465D+00
     .377930700779D-05  .212558358908D-02  .139847397804D-04  .515372629547D+04
     .648000000000D+05  .149011611938D-07  .524014739774D-01  .521540641785D-07
     .956580369663D+00  .109781250000D+03  .293043526576D+00 -.783889795014D-08
    -.742888087128D-10  .100000000000D+01  .180500000000D+04  .000000000000D+00
     .340000000000D+01  .000000000000D+00  .279396772385D-08  .740000000000D+02
     .576060000000D+05  .400000000000D+01
25 14  8 10 18  0  0.0  .238376669586D-04 -.568434188608D-12  .000000000000D+00
     .310000000000D+02  .108437500000D+03  .461804950316D-08 -.121449809501D+01
     .572763383389D-05  .368325784802D-02  .282749533653D-05  .515356925392D+04
     .648000000000D+05  .912696123123D-07  .110879297132D+01 -.335276126862D-07
     .976562477427D+00  .333718750000D+03  .730905835699D+00 -.845106630655D-08
     .528593446610D-09  .100000000000D+01  .180500000000D+04  .000000000000D+00
     .240000000000D+01  .000000000000D+00  .558793544769D-08  .310000000000D+02
     .576060000000D+05  .400000000000D+01
26 14  8 10 18  0  0.0 -.152541324496D-04 -.129602995003D-10  .000000000000D+00
     .680000000000D+02 -.574687500000D+02  .433625205087D-08  .151571618691D+01
    -.331178307533D-05  .212148699211D-01  .837258994579D-05  .515368741035D+04
     .648000000000D+05 -.286847352982D-06 -.884100862921D+00 -.389292836189D-06
     .974024592514D+00  .229687500000D+03  .128982600858D+01 -.809033699501D-08
    -.638240871008D-09  .100000000000D+01  .180500000000D+04  .000000000000D+00
     .240000000000D+01  .000000000000D+00 -.605359673500D-08  .680000000000D+02
     .576060000000D+05  .400000000000D+01
27 14  8 10 18  0  0.0  .494299456477D-05  .329691829393D-11  .000000000000D+00
     .280000000000D+02 -.122750000000D+03  .483555856328D-08  .264651042649D+01
    -.632181763649D-05  .142719259020D-02  .357069075108D-05  .515367860413D+04
     .648000000000D+05  .745058059692D-08  .215605597981D+01  .335276126862D-07
     .964155675468D+00  .312968750000D+03  .322704554900D+00 -.846749556232D-08
    -.423946230491D-09  .100000000000D+01  .180500000000D+04  .000000000000D+00
     .240000000000D+01  .000000000000D+00  .186264514923D-08  .280000000000D+02
     .576060000000D+05  .400000000000D+01
29 14  8 10 18  0  0.0  .552746932954D-03  .261479726760D-11  .000000000000D+00
     .660000000000D+02 -.135000000000D+03  .467805200250D-08 -.847181427570D+00
    -.688992440701D-05  .126837531570D-02  .503659248352D-05  .515366390610D+04
     .648000000000D+05  .838190317154D-07  .221119945820D+01 -.186264514923D-08
     .970176453801D+00  .286000000000D+03 -.794737224681D+00 -.847213861287D-08
    -.482162941165D-09  .100000000000D+01  .180500000000D+04  .000000000000D+00
     .240000000000D+01  .000000000000D+00 -.977888703346D-08  .660000000000D+02
     .576060000000D+05  .400000000000D+01
30 14  8 10 18  0  0.0 -.464534386992D-04 -.557065504836D-11  .000000000000D+00
     .600000000000D+01  .757187500000D+02  .410695678552D-08 -.478180375275D-02
     .399723649025D-05  .973937800154D-03  .124908983707D-04  .515368190765D+04
     .648000000000D+05  .502914190292D-07  .141678707887D+00  .186264514923D-08
     .958861497824D+00  .136812500000D+03  .298476296398D+01 -.784175521201D-08
     .735744932444D-10  .100000000000D+01  .180500000000D+04  .000000000000D+00
     .240000000000D+01  .000000000000D+00  .325962901115D-08  .600000000000D+01
     .576060000000D+05  .400000000000D+01
31 14  8 10 18  0  0.0  .332834199071D-03 -.341060513165D-12  .000000000000D+00
     .950000000000D+02  .729062500000D+02  .371372612017D-08 -.569192678303D-01
     .378303229809D-05  .798426463734D-02  .141523778439D-04  .515361023521D+04
     .648000000000D+05  .391155481339D-07  .947676605506D-01 -.137835741043D-06
     .978190892503D+00  .111531250000D+03 -.633569716710D+00 -.774817988565D-08
     .714315468392D-12  .100000000000D+01  .180500000000D+04  .000000000000D+00
     .340000000000D+01  .000000000000D+00 -.130385160446D-07  .950000000000D+02
     .576060000000D+05  .400000000000D+01
32 14  8 10 18  0  0.0 -.365839339793D-03  .841282599140D-11  .000000000000D+00
     .100000000000D+02  .450312500000D+02  .536593779856D-08  .518296981515D+00
     .226125121117D-05  .113914968679D-01  .531412661076D-05  .515366905594D+04
     .648000000000D+05  .203028321266D-06 -.194611343866D+01  .149011611938D-07
     .947191768122D+00  .266531250000D+03 -.117180074620D+00 -.862643075404D-08
     .370372570361D-09  .100000000000D+01  .180500000000D+04  .000000000000D+00
     .240000000000D+01  .000000000000D+00 -.325962901115D-08  .100000000000D+02
     .576060000000D+05  .400000000000D+01
15 14  8 10 17 59 44.0 -.196117907763D-03 -.216004991671D-11  .000000000000D+00
     .400000000000D+01 -.539375000000D+02  .540451083386D-08  .205774287293D+01
    -.279955565929D-05  .641005649231D-02  .665895640850D-05  .515373350906D+04
     .647840000000D+05 -.931322574615D-07 -.102197635831D+01  .912696123123D-07
     .935667156967D+00  .239406250000D+03  .272279137999D+00 -.853464121635D-08
    -.627526138983D-09  .100000000000D+01  .180500000000D+04  .000000000000D+00
     .240000000000D+01  .000000000000D+00 -.102445483208D-07  .400000000000D+01
     .582060000000D+05  .400000000000D+01
31 14  8 10 17 59 44.0  .332832336426D-03 -.341060513165D-12  .000000000000D+00
     .230000000000D+02  .729062500000D+02  .371372612017D-08 -.592531722239D-01
     .378303229809D-05  .798426487017D-02  .141523778439D-04  .515361023140D+04
     .647840000000D+05  .391155481339D-07  .947677717324D-01 -.137835741043D-06
     .978190888114D+00  .111531250000D+03 -.633569605529D+00 -.774817988565D-08
     .714315468392D-12  .100000000000D+01  .180500000000D+04  .000000000000D+00
     .240000000000D+01  .000000000000D+00 -.130385160446D-07  .230000000000D+02
     .600360000000D+05  .400000000000D+01
15 14  8 10 19 59 44.0 -.196133740246D-03 -.216004991671D-11  .000000000000D+00
     .140000000000D+02 -.570625000000D+02  .534415117678D-08  .310781264629D+01
    -.299513339996D-05  .640905147884D-02  .623613595963D-05  .515373561478D+04
     .719840000000D+05 -.894069671631D-07 -.102203769846D+01 -.745058059692D-08
     .935663049093D+00  .246968750000D+03  .272359425869D+00 -.846856703552D-08
    -.596810573842D-09  .100000000000D+01  .180500000000D+04  .000000000000D+00
     .240000000000D+01  .000000000000D+00 -.102445483208D-07  .140000000000D+02
     .648060000000D+05  .400000000000D+01
31 14  8 10 19 59 44.0  .332830008119D-03 -.341060513165D-12  .000000000000D+00
     .240000000000D+02  .778750000000D+02  .362657963303D-08  .990940855544D+00
     .411830842495D-05  .798390072305D-02  .142157077789D-04  .515360975838D+04
     .719840000000D+05  .217929482460D-06  .947123359147D-01 -.763684511185D-07
     .978191474744D+00  .111218750000D+03 -.633549468461D+00 -.760924552705D-08
    -.128576784311D-10  .100000000000D+01  .180500000000D+04  .000000000000D+00
     .240000000000D+01  .000000000000D+00 -.130385160446D-07  .240000000000D+02
     .648060000000D+05  .400000000000D+01
 1 14  8 10 20  0  0.0  .193775631487D-04  .682121026330D-12  .000000000000D+00
     .240000000000D+02 -.633437500000D+02  .425017703693D-08  .163217962478D+01
    -.307150185108D-05  .336359080393D-02  .144094228745D-04  .515368946838D+04
     .720000000000D+05  .745058059692D-08 -.307197949491D+01  .128522515297D-06
     .961657124034D+00  .101500000000D+03  .368086054090D+00 -.786497046473D-08
     .161078138122D-09  .100000000000D+01  .180500000000D+04  .000000000000D+00
     .240000000000D+01  .000000000000D+00  .558793544769D-08  .240000000000D+02
     .648060000000D+05  .400000000000D+01
 2 14  8 10 20  0  0.0  .511824153364D-03  .216004991671D-11  .000000000000D+00
     .770000000000D+02 -.612187500000D+02  .458661962255D-08  .230676246489D+01
    -.332109630108D-05  .136900393991D-01  .133700668812D-04  .515366738892D+04
     .720000000000D+05 -.178813934326D-06 -.310321928248D+01 -.262632966042D-06
     .940209997440D+00  .112343750000D+03 -.239911717373D+01 -.788175687824D-08
     .120719314158D-09  .100000000000D+01  .180500000000D+04  .000000000000D+00
     .240000000000D+01  .000000000000D+00 -.200234353542D-07  .770000000000D+02
     .648060000000D+05  .400000000000D+01
 3 14  8 10 20  0  0.0  .402159988880D-03  .488853402203D-11  .000000000000D+00
     .108000000000D+03 -.103593750000D+03  .542915471751D-08  .232070553710D+01
    -.559538602829D-05  .173409358831D-01  .116974115372D-05  .515382194138D+04
     .720000000000D+05  .180676579475D-06  .200474487655D+01 -.152736902237D-06
     .939048153753D+00  .345000000000D+03  .141460566613D+01 -.863500253966D-08
    -.357872049664D-09  .100000000000D+01  .180500000000D+04  .000000000000D+00
     .485000000000D+01  .630000000000D+02 -.465661287308D-08  .108000000000D+03
     .648060000000D+05  .400000000000D+01
